{
  "65283": {
    "noradId": "65283",
    "tle": [
      "1 65283C 25184L   25290.05326389  .00010055  00000+0  69830-3 0  2901",
      "2 65283  97.6037 341.0087 0001219  97.4113 260.1204 15.05634827    16"
    ]
  },
  "65284": {
    "noradId": "65284",
    "tle": [
      "1 65284C 25184M   25290.05465278  .00005847  00000+0  40604-3 0  2904",
      "2 65284  97.6057 341.0832 0001265  90.7977  79.2221 15.05640178    16"
    ]
  },
  "65285": {
    "noradId": "65285",
    "tle": [
      "1 65285C 25184N   25290.05048611  .00013483  00000+0  93680-3 0  2900",
      "2 65285  97.6045 341.0453 0000679 142.1906 290.3268 15.05616866    19"
    ]
  },
  "65286": {
    "noradId": "65286",
    "tle": [
      "1 65286C 25184P   25290.05048611  .00011973  00000+0  83152-3 0  2906",
      "2 65286  97.6057 341.0654 0000371  88.3167  29.1426 15.05634111    12"
    ]
  },
  "65287": {
    "noradId": "65287",
    "tle": [
      "1 65287C 25184Q   25290.05395833  .00005770  00000+0  39206-3 0  2907",
      "2 65287  97.6039 341.0266 0000943  91.3597 309.9564 15.06453791    14"
    ]
  },
  "65288": {
    "noradId": "65288",
    "tle": [
      "1 65288C 25184R   25290.04909722  .00004410  00000+0  29957-3 0  2907",
      "2 65288  97.6061 341.0934 0001747  89.3961  86.5593 15.06462723    12"
    ]
  },
  "65289": {
    "noradId": "65289",
    "tle": [
      "1 65289C 25184S   25290.07062500  .00010060  00000+0  69859-3 0  2908",
      "2 65289  97.6049 341.1358 0001671  91.7674 254.7514 15.05637279    15"
    ]
  },
  "65290": {
    "noradId": "65290",
    "tle": [
      "1 65290C 25184T   25290.05326389  .00011667  00000+0  79270-3 0  2908",
      "2 65290  97.6062 341.0865 0000732  91.5251  82.4675 15.06449620    16"
    ]
  },
  "65291": {
    "noradId": "65291",
    "tle": [
      "1 65291C 25184U   25290.04840278 -.00026446  00000+0 -18373-2 0  2905",
      "2 65291  97.6037 340.9975 0001249  90.8440 225.4247 15.05659550    13"
    ]
  },
  "65292": {
    "noradId": "65292",
    "tle": [
      "1 65292C 25184V   25290.05187500  .00004127  00000+0  28655-3 0  2904",
      "2 65292  97.6042 341.1301 0001659  85.1008 189.8442 15.05643892    10"
    ]
  },
  "65293": {
    "noradId": "65293",
    "tle": [
      "1 65293C 25184W   25290.05256944  .00008996  00000+0  62478-3 0  2903",
      "2 65293  97.6054 341.0612 0000600  99.4014  14.3463 15.05636806    10"
    ]
  },
  "65294": {
    "noradId": "65294",
    "tle": [
      "1 65294C 25184X   25290.07062500  .00022418  00000+0  15240-2 0  2908",
      "2 65294  97.6039 341.0501 0000808 121.9945  25.2015 15.06417647    10"
    ]
  },
  "65295": {
    "noradId": "65295",
    "tle": [
      "1 65295C 25184Y   25290.07131944 -.00001217  00000+0 -84491-4 0  2900",
      "2 65295  97.6040 341.0093 0001651  91.4254 318.8888 15.05651749    11"
    ]
  },
  "65296": {
    "noradId": "65296",
    "tle": [
      "1 65296C 25184Z   25290.06784722  .00005740  00000+0  39864-3 0  2904",
      "2 65296  97.6038 341.0297 0001116  92.3736 359.1465 15.05640032    18"
    ]
  },
  "65323": {
    "noradId": "65323",
    "tle": [
      "1 65323C 25189A   25290.07270833  .00007633  00000+0  19047-3 0  2908",
      "2 65323  53.1595 154.5515 0001104  86.3991  68.4335 15.39608874    18"
    ]
  },
  "65324": {
    "noradId": "65324",
    "tle": [
      "1 65324C 25189B   25290.07201389  .00006674  00000+0  16652-3 0  2902",
      "2 65324  53.1601 155.2896 0001044  89.5530  59.0508 15.39611102    10"
    ]
  },
  "65325": {
    "noradId": "65325",
    "tle": [
      "1 65325C 25189C   25290.07270833  .00001077  00000+0  26865-4 0  2903",
      "2 65325  53.1596 155.6456 0001188  97.3198 234.8603 15.39619487    19"
    ]
  },
  "65326": {
    "noradId": "65326",
    "tle": [
      "1 65326C 25189D   25290.06715278  .00004242  00000+0  10584-3 0  2907",
      "2 65326  53.1599 155.5699 0001145  88.5718 264.3150 15.39612642    15"
    ]
  },
  "65327": {
    "noradId": "65327",
    "tle": [
      "1 65327C 25189E   25290.07270833  .00010213  00000+0  25482-3 0  2900",
      "2 65327  53.1605 155.8020 0001188  90.2974 164.6313 15.39607845    18"
    ]
  },
  "65328": {
    "noradId": "65328",
    "tle": [
      "1 65328C 25189F   25290.06993056  .00002436  00000+0  60784-4 0  2902",
      "2 65328  53.1594 155.4588 0001151  95.1164 322.8024 15.39618268    14"
    ]
  },
  "65329": {
    "noradId": "65329",
    "tle": [
      "1 65329C 25189G   25290.07201389  .00006707  00000+0  16736-3 0  2907",
      "2 65329  53.1605 155.1871 0001102  86.2355 113.8707 15.39611417    14"
    ]
  },
  "65330": {
    "noradId": "65330",
    "tle": [
      "1 65330C 25189H   25290.06854167  .00022308  00000+0  55653-3 0  2902",
      "2 65330  53.1595 155.4081 0000855  88.6994 349.1178 15.39601313    19"
    ]
  },
  "65331": {
    "noradId": "65331",
    "tle": [
      "1 65331C 25189J   25290.07062500 -.00045895  00000+0 -11449-2 0  2908",
      "2 65331  53.1596 155.3472 0001315 103.3642   9.9992 15.39668519    17"
    ]
  },
  "65332": {
    "noradId": "65332",
    "tle": [
      "1 65332C 25189K   25290.07062500  .00017229  00000+0  42970-3 0  2901",
      "2 65332  53.1601 155.0335 0001139  78.7679 190.8480 15.39613709    12"
    ]
  },
  "65333": {
    "noradId": "65333",
    "tle": [
      "1 65333C 25189L   25290.07409722  .00000779  00000+0  19446-4 0  2908",
      "2 65333  53.1606 155.1767 0001217  81.1920 128.6025 15.39618931    18"
    ]
  },
  "65334": {
    "noradId": "65334",
    "tle": [
      "1 65334C 25189M   25290.08034722  .00002244  00000+0  55976-4 0  2901",
      "2 65334  53.1604 155.6655 0001207  82.4321 264.4940 15.39619593    16"
    ]
  },
  "65335": {
    "noradId": "65335",
    "tle": [
      "1 65335C 25189N   25290.07131944 -.00019876  00000+0 -49554-3 0  2900",
      "2 65335  53.1604 155.0861 0000996  86.9739 158.8351 15.39662372    11"
    ]
  },
  "65336": {
    "noradId": "65336",
    "tle": [
      "1 65336C 25189P   25290.06715278 -.00001136  00000+0 -28353-4 0  2903",
      "2 65336  53.1596 155.6201 0001233  91.8452 235.2805 15.39621464    19"
    ]
  },
  "65337": {
    "noradId": "65337",
    "tle": [
      "1 65337C 25189Q   25290.06784722  .00021073  00000+0  52613-3 0  2909",
      "2 65337  53.1596 155.3589 0001014  76.9477  22.8670 15.39577002    12"
    ]
  },
  "65338": {
    "noradId": "65338",
    "tle": [
      "1 65338C 25189R   25290.06993056 -.00002330  00000+0 -58135-4 0  2905",
      "2 65338  53.1601 155.1419 0001242  93.4505 120.8540 15.39621471    14"
    ]
  },
  "65339": {
    "noradId": "65339",
    "tle": [
      "1 65339C 25189S   25290.07062500 -.00001540  00000+0 -38411-4 0  2905",
      "2 65339  53.1596 155.5036 0001125  90.2255 305.8028 15.39619949    17"
    ]
  },
  "65340": {
    "noradId": "65340",
    "tle": [
      "1 65340C 25189T   25290.05187500  .00024141  00000+0  60266-3 0  2905",
      "2 65340  53.1602 155.3336 0001561  98.6102 322.2613 15.39577798    13"
    ]
  },
  "65341": {
    "noradId": "65341",
    "tle": [
      "1 65341C 25189U   25290.05256944  .00009675  00000+0  24138-3 0  2908",
      "2 65341  53.1607 155.1250 0001161  83.7098  83.9464 15.39611786    18"
    ]
  },
  "65342": {
    "noradId": "65342",
    "tle": [
      "1 65342C 25189V   25290.04770833  .00016122  00000+0  40226-3 0  2907",
      "2 65342  53.1605 155.8128 0001216  88.4043  79.3874 15.39603079    11"
    ]
  },
  "65343": {
    "noradId": "65343",
    "tle": [
      "1 65343C 25189W   25290.06854167 -.00005249  00000+0 -13096-3 0  2908",
      "2 65343  53.1605 155.1498 0001158  89.4416 115.2986 15.39624926    13"
    ]
  },
  "65344": {
    "noradId": "65344",
    "tle": [
      "1 65344C 25189X   25290.05048611  .00010517  00000+0  26240-3 0  2904",
      "2 65344  53.1599 155.7511 0001210  88.1798 118.9088 15.39607575    10"
    ]
  },
  "65345": {
    "noradId": "65345",
    "tle": [
      "1 65345C 25189Y   25290.07618056  .00005211  00000+0  12993-3 0  2908",
      "2 65345  53.1596 155.3732 0000986  93.3859  24.8726 15.39636403    10"
    ]
  },
  "65346": {
    "noradId": "65346",
    "tle": [
      "1 65346C 25189Z   25290.07270833 -.00001301  00000+0 -32467-4 0  2903",
      "2 65346  53.1599 155.5957 0001258  80.3743 275.6965 15.39621890    11"
    ]
  },
  "65347": {
    "noradId": "65347",
    "tle": [
      "1 65347C 25189AA  25290.06784722  .00001898  00000+0  47354-4 0  2900",
      "2 65347  53.1594 155.5119 0001133  87.4616 295.0217 15.39617926    17"
    ]
  },
  "65348": {
    "noradId": "65348",
    "tle": [
      "1 65348C 25189AB  25290.06715278  .00004563  00000+0  11385-3 0  2907",
      "2 65348  53.1594 155.5709 0001133  88.1068 262.9146 15.39613307    15"
    ]
  },
  "65349": {
    "noradId": "65349",
    "tle": [
      "1 65349C 25189AC  25290.06715278  .00024937  00000+0  62231-3 0  2901",
      "2 65349  53.1593 155.4634 0001263  86.1815 318.2287 15.39587192    16"
    ]
  },
  "65350": {
    "noradId": "65350",
    "tle": [
      "1 65350C 25189AD  25290.06784722 -.00001251  00000+0 -31220-4 0  2904",
      "2 65350  53.1599 155.3092 0000598  83.7701  39.8642 15.39620023    10"
    ]
  },
  "65351": {
    "noradId": "65351",
    "tle": [
      "1 65351C 25190A   25290.07201389  .00015181  00000+0  37879-3 0  2901",
      "2 65351  53.1591 117.0983 0001086  88.9753 187.2666 15.39602144    12"
    ]
  },
  "65352": {
    "noradId": "65352",
    "tle": [
      "1 65352C 25190B   25290.07131944  .00032280  00000+0  80608-3 0  2908",
      "2 65352  53.1596 115.8050 0000435 112.6279  83.5326 15.39561953    17"
    ]
  },
  "65353": {
    "noradId": "65353",
    "tle": [
      "1 65353C 25190C   25290.06923611  .00003290  00000+0  82096-4 0  2901",
      "2 65353  53.1592 115.6017 0001052  87.1530 204.2063 15.39615625    13"
    ]
  }
}